{
 "generated_at": "2026-07-13T08:17:10Z",
 "sources": [
  {
   "name": "CelesTrak",
   "url": "https://celestrak.org/NORAD/elements/",
   "license": "frei verfügbar; Attribution. Ursprünglich USSPACECOM/Space-Track."
  },
  {
   "name": "GCAT (J. McDowell, planet4589.org)",
   "url": "https://planet4589.org/space/gcat/",
   "license": "CC-BY 4.0"
  }
 ],
 "satellites": [
  {
   "norad": 41556,
   "name": "ZIYUAN 3-02 (ZY 3-02)",
   "intl": "2016-033A",
   "group": "resource",
   "gcat": {
    "class": "C",
    "category": "IMG",
    "owner": "GCDX/ZZWYZ",
    "state": "CN"
   },
   "omm": {
    "OBJECT_NAME": "ZIYUAN 3-02 (ZY 3-02)",
    "OBJECT_ID": "2016-033A",
    "EPOCH": "2026-07-12T20:12:19.771200",
    "MEAN_MOTION": 15.21421166,
    "ECCENTRICITY": 0.0013819,
    "INCLINATION": 97.3832,
    "RA_OF_ASC_NODE": 269.1227,
    "ARG_OF_PERICENTER": 193.1718,
    "MEAN_ANOMALY": 166.9159,
    "EPHEMERIS_TYPE": 0,
    "CLASSIFICATION_TYPE": "U",
    "NORAD_CAT_ID": 41556,
    "ELEMENT_SET_NO": 999,
    "REV_AT_EPOCH": 56188,
    "BSTAR": 0.00014912,
    "MEAN_MOTION_DOT": 0.00003286,
    "MEAN_MOTION_DDOT": 0
   }
  }
 ]
}
